{"type": "FeatureCollection", "features": [ {"type": "Feature", "properties": {"norad_id": 34683, "name": "COSMOS 2251 DEB", "group": "cosmos-2251-debris", "lat": -71.91548838468589, "lon": -42.65279389996073, "alt_km": 681.1621835788364, "timestamp": "2025-12-21T03:56:51.227684+00:00", "meta": {"OBJECT_NAME": "COSMOS 2251 DEB", "OBJECT_ID": "1993-036YD", "EPOCH": "2025-12-20T15:57:48.624768", "MEAN_MOTION": 14.64579205, "ECCENTRICITY": 0.0017726, "INCLINATION": 74.0297, "RA_OF_ASC_NODE": 77.0284, "ARG_OF_PERICENTER": 191.9908, "MEAN_ANOMALY": 317.5627, "EPHEMERIS_TYPE": 0, "CLASSIFICATION_TYPE": "U", "NORAD_CAT_ID": 34683, "ELEMENT_SET_NO": 999, "REV_AT_EPOCH": 88464, "BSTAR": 0.00073578, "MEAN_MOTION_DOT": 3.886e-05, "MEAN_MOTION_DDOT": 0}, "tle": {"line1": "1 34683U 93036YD  25354.66514612  .00003886  00000+0  73578-3 0  9992", "line2": "2 34683  74.0297  77.0284 0017726 191.9908 317.5627 14.64579205884647"}}, "geometry": {"type": "Point", "coordinates": [-42.65279389996073, -71.91548838468589]}}, {"type": "Feature", "properties": {"norad_id": 34685, "name": "COSMOS 2251 DEB", "group": "cosmos-2251-debris", "lat": -19.061021800137013, "lon": -41.55721751403207, "alt_km": 697.7577433712904, "timestamp": "2025-12-21T03:56:51.227694+00:00", "meta": {"OBJECT_NAME": "COSMOS 2251 DEB", "OBJECT_ID": "1993-036YF", "EPOCH": "2025-12-20T10:49:15.151584", "MEAN_MOTION": 14.57569023, "ECCENTRICITY": 0.00142669, "INCLINATION": 74.0291, "RA_OF_ASC_NODE": 134.1204, "ARG_OF_PERICENTER": 238.8452, "MEAN_ANOMALY": 178.0302, "EPHEMERIS_TYPE": 0, "CLASSIFICATION_TYPE": "U", "NORAD_CAT_ID": 34685, "ELEMENT_SET_NO": 999, "REV_AT_EPOCH": 88644, "BSTAR": 0.00066846808, "MEAN_MOTION_DOT": 3.019e-05, "MEAN_MOTION_DDOT": 0}, "tle": {"line1": "1 34685U 93036YF  25354.45086981  .00003019  00000+0  66847-3 0  9993", "line2": "2 34685  74.0291 134.1204 0014266 238.8452 178.0302 14.57569023886440"}}, "geometry": {"type": "Point", "coordinates": [-41.55721751403207, -19.061021800137013]}}, {"type": "Feature", "properties": {"norad_id": 34689, "name": "COSMOS 2251 DEB", "group": "cosmos-2251-debris", "lat": -50.229178216755585, "lon": 48.78443738170976, "alt_km": 761.6119582710871, "timestamp": "2025-12-21T03:56:51.227703+00:00", "meta": {"OBJECT_NAME": "COSMOS 2251 DEB", "OBJECT_ID": "1993-036YK", "EPOCH": "2025-12-15T15:20:16.539648", "MEAN_MOTION": 14.04491905, "ECCENTRICITY": 0.02275051, "INCLINATION": 74.0901, "RA_OF_ASC_NODE": 218.3502, "ARG_OF_PERICENTER": 286.6099, "MEAN_ANOMALY": 101.262, "EPHEMERIS_TYPE": 0, "CLASSIFICATION_TYPE": "U", "NORAD_CAT_ID": 34689, "ELEMENT_SET_NO": 999, "REV_AT_EPOCH": 84382, "BSTAR": 0.0020174062, "MEAN_MOTION_DOT": 4.031e-05, "MEAN_MOTION_DDOT": 0}, "tle": {"line1": "1 34689U 93036YK  25349.63908032  .00004031  00000+0  20174-2 0  9998", "line2": "2 34689  74.0901 218.3502 0227505 286.6099 101.2620 14.04491905843829"}}, "geometry": {"type": "Point", "coordinates": [48.78443738170976, -50.229178216755585]}}, {"type": "Feature", "properties": {"norad_id": 34721, "name": "COSMOS 2251 DEB", "group": "cosmos-2251-debris", "lat": 33.65526637057389, "lon": -37.29879578821895, "alt_km": 1036.0936309784192, "timestamp": "2025-12-21T03:56:51.227712+00:00", "meta": {"OBJECT_NAME": "COSMOS 2251 DEB", "OBJECT_ID": "1993-036YP", "EPOCH": "2025-12-19T22:50:41.702784", "MEAN_MOTION": 13.96880423, "ECCENTRICITY": 0.0223098, "INCLINATION": 73.9231, "RA_OF_ASC_NODE": 313.7346, "ARG_OF_PERICENTER": 251.3855, "MEAN_ANOMALY": 166.8871, "EPHEMERIS_TYPE": 0, "CLASSIFICATION_TYPE": "U", "NORAD_CAT_ID": 34721, "ELEMENT_SET_NO": 999, "REV_AT_EPOCH": 85250, "BSTAR": 0.00080586, "MEAN_MOTION_DOT": 1.358e-05, "MEAN_MOTION_DDOT": 0}, "tle": {"line1": "1 34721U 93036YP  25353.95187156  .00001358  00000+0  80586-3 0  9994", "line2": "2 34721  73.9231 313.7346 0223098 251.3855 166.8871 13.96880423852505"}}, "geometry": {"type": "Point", "coordinates": [-37.29879578821895, 33.65526637057389]}}, {"type": "Feature", "properties": {"norad_id": 34722, "name": "COSMOS 2251 DEB", "group": "cosmos-2251-debris", "lat": -1.8183455448835135, "lon": -39.48517074567102, "alt_km": 901.0925201241844, "timestamp": "2025-12-21T03:56:51.227722+00:00", "meta": {"OBJECT_NAME": "COSMOS 2251 DEB", "OBJECT_ID": "1993-036YQ", "EPOCH": "2025-12-20T14:55:17.355360", "MEAN_MOTION": 14.11956367, "ECCENTRICITY": 0.0166738, "INCLINATION": 73.873, "RA_OF_ASC_NODE": 322.0087, "ARG_OF_PERICENTER": 246.1886, "MEAN_ANOMALY": 232.4999, "EPHEMERIS_TYPE": 0, "CLASSIFICATION_TYPE": "U", "NORAD_CAT_ID": 34722, "ELEMENT_SET_NO": 999, "REV_AT_EPOCH": 86356, "BSTAR": 0.00052533, "MEAN_MOTION_DOT": 1.068e-05, "MEAN_MOTION_DDOT": 0}, "tle": {"line1": "1 34722U 93036YQ  25354.62172865  .00001068  00000+0  52533-3 0  9990", "line2": "2 34722  73.8730 322.0087 0166738 246.1886 232.4999 14.11956367863565"}}, "geometry": {"type": "Point", "coordinates": [-39.48517074567102, -1.8183455448835135]}}, {"type": "Feature", "properties": {"norad_id": 34726, "name": "COSMOS 2251 DEB", "group": "cosmos-2251-debris", "lat": 23.673126882260995, "lon": -22.533898695753784, "alt_km": 695.6215419452074, "timestamp": "2025-12-21T03:56:51.227731+00:00", "meta": {"OBJECT_NAME": "COSMOS 2251 DEB", "OBJECT_ID": "1993-036YU", "EPOCH": "2025-12-20T01:30:48.577536", "MEAN_MOTION": 14.59507497, "ECCENTRICITY": 0.0041772, "INCLINATION": 74.0281, "RA_OF_ASC_NODE": 332.3531, "ARG_OF_PERICENTER": 120.7631, "MEAN_ANOMALY": 239.7658, "EPHEMERIS_TYPE": 0, "CLASSIFICATION_TYPE": "U", "NORAD_CAT_ID": 34726, "ELEMENT_SET_NO": 999, "REV_AT_EPOCH": 88609, "BSTAR": 0.00028430628, "MEAN_MOTION_DOT": 1.336e-05, "MEAN_MOTION_DDOT": 0}, "tle": {"line1": "1 34726U 93036YU  25354.06306224  .00001336  00000+0  28431-3 0  9998", "line2": "2 34726  74.0281 332.3531 0041772 120.7631 239.7658 14.59507497886099"}}, "geometry": {"type": "Point", "coordinates": [-22.533898695753784, 23.673126882260995]}}, {"type": "Feature", "properties": {"norad_id": 34728, "name": "COSMOS 2251 DEB", "group": "cosmos-2251-debris", "lat": -63.10221206530053, "lon": 89.79857337696559, "alt_km": 688.1324925904537, "timestamp": "2025-12-21T03:56:51.227740+00:00", "meta": {"OBJECT_NAME": "COSMOS 2251 DEB", "OBJECT_ID": "1993-036YW", "EPOCH": "2025-12-20T02:20:18.568032", "MEAN_MOTION": 14.70905998, "ECCENTRICITY": 0.00414013, "INCLINATION": 74.0163, "RA_OF_ASC_NODE": 237.4676, "ARG_OF_PERICENTER": 33.08, "MEAN_ANOMALY": 327.2947, "EPHEMERIS_TYPE": 0, "CLASSIFICATION_TYPE": "U", "NORAD_CAT_ID": 34728, "ELEMENT_SET_NO": 999, "REV_AT_EPOCH": 88908, "BSTAR": 0.00043281985, "MEAN_MOTION_DOT": 2.653e-05, "MEAN_MOTION_DDOT": 0}, "tle": {"line1": "1 34728U 93036YW  25354.09743713  .00002653  00000+0  43282-3 0  9995", "line2": "2 34728  74.0163 237.4676 0041401  33.0800 327.2947 14.70905998889085"}}, "geometry": {"type": "Point", "coordinates": [89.79857337696559, -63.10221206530053]}}, {"type": "Feature", "properties": {"norad_id": 34729, "name": "COSMOS 2251 DEB", "group": "cosmos-2251-debris", "lat": -73.63585032038928, "lon": -120.82255447808105, "alt_km": 634.975993526321, "timestamp": "2025-12-21T03:56:51.227749+00:00", "meta": {"OBJECT_NAME": "COSMOS 2251 DEB", "OBJECT_ID": "1993-036YX", "EPOCH": "2025-12-20T07:36:17.277696", "MEAN_MOTION": 14.82993666, "ECCENTRICITY": 0.00118616, "INCLINATION": 74.0176, "RA_OF_ASC_NODE": 343.4186, "ARG_OF_PERICENTER": 98.0179, "MEAN_ANOMALY": 325.0807, "EPHEMERIS_TYPE": 0, "CLASSIFICATION_TYPE": "U", "NORAD_CAT_ID": 34729, "ELEMENT_SET_NO": 999, "REV_AT_EPOCH": 88570, "BSTAR": 0.0012365991, "MEAN_MOTION_DOT": 0.00010042, "MEAN_MOTION_DDOT": 0}, "tle": {"line1": "1 34729U 93036YX  25354.31686664  .00010042  00000+0  12366-2 0  9991", "line2": "2 34729  74.0176 343.4186 0011861  98.0179 325.0807 14.82993666885709"}}, "geometry": {"type": "Point", "coordinates": [-120.82255447808105, -73.63585032038928]}}, {"type": "Feature", "properties": {"norad_id": 34732, "name": "COSMOS 2251 DEB", "group": "cosmos-2251-debris", "lat": 44.67939597138946, "lon": -118.98819560807785, "alt_km": 732.1130218243497, "timestamp": "2025-12-21T03:56:51.227758+00:00", "meta": {"OBJECT_NAME": "COSMOS 2251 DEB", "OBJECT_ID": "1993-036ZA", "EPOCH": "2025-12-20T12:30:15.244992", "MEAN_MOTION": 14.47308773, "ECCENTRICITY": 0.00402321, "INCLINATION": 74.0458, "RA_OF_ASC_NODE": 78.6461, "ARG_OF_PERICENTER": 228.1771, "MEAN_ANOMALY": 153.8838, "EPHEMERIS_TYPE": 0, "CLASSIFICATION_TYPE": "U", "NORAD_CAT_ID": 34732, "ELEMENT_SET_NO": 999, "REV_AT_EPOCH": 88256, "BSTAR": 0.00010236278, "MEAN_MOTION_DOT": 3.5e-06, "MEAN_MOTION_DDOT": 0}, "tle": {"line1": "1 34732U 93036ZA  25354.52100978  .00000350  00000+0  10236-3 0  9993", "line2": "2 34732  74.0458  78.6461 0040232 228.1771 153.8838 14.47308773882569"}}, "geometry": {"type": "Point", "coordinates": [-118.98819560807785, 44.67939597138946]}}, {"type": "Feature", "properties": {"norad_id": 34736, "name": "COSMOS 2251 DEB", "group": "cosmos-2251-debris", "lat": 10.37917092709292, "lon": -165.34280932142403, "alt_km": 413.84438335894356, "timestamp": "2025-12-21T03:56:51.227767+00:00", "meta": {"OBJECT_NAME": "COSMOS 2251 DEB", "OBJECT_ID": "1993-036ZE", "EPOCH": "2025-12-20T11:46:33.395520", "MEAN_MOTION": 15.54176498, "ECCENTRICITY": 0.00145074, "INCLINATION": 73.9985, "RA_OF_ASC_NODE": 19.1611, "ARG_OF_PERICENTER": 340.8808, "MEAN_ANOMALY": 19.186, "EPHEMERIS_TYPE": 0, "CLASSIFICATION_TYPE": "U", "NORAD_CAT_ID": 34736, "ELEMENT_SET_NO": 999, "REV_AT_EPOCH": 88568, "BSTAR": 0.0064099865, "MEAN_MOTION_DOT": 0.00442855, "MEAN_MOTION_DDOT": 0}, "tle": {"line1": "1 34736U 93036ZE  25354.49066430  .00442855  00000+0  64100-2 0  9995", "line2": "2 34736  73.9985  19.1611 0014507 340.8808  19.1860 15.54176498885683"}}, "geometry": {"type": "Point", "coordinates": [-165.34280932142403, 10.37917092709292]}}]}